{
  "type": "FeatureCollection",
  "features": [
    {
      "type": "Feature",
      "properties": {
        "norad_id": 30073,
        "name": "FENGYUN 1C DEB",
        "group": "fengyun-1c-debris",
        "lat": 9.68475744935167,
        "lon": -43.11690475432087,
        "alt_km": 828.1502661209679,
        "timestamp": "2025-12-11T10:53:16.160443+00:00",
        "meta_object_name": "FENGYUN 1C DEB",
        "meta_object_id": "1999-025QA",
        "meta_epoch": "2025-12-10T10:10:07.370688",
        "meta_mean_motion": 14.18642799,
        "meta_eccentricity": 0.00537504,
        "meta_inclination": 99.4119,
        "meta_ra_of_asc_node": 317.413,
        "meta_arg_of_pericenter": 287.4133,
        "meta_mean_anomaly": 224.6446,
        "meta_ephemeris_type": 0,
        "meta_classification_type": "U",
        "meta_norad_cat_id": 30073,
        "meta_element_set_no": 999,
        "meta_rev_at_epoch": 96892,
        "meta_bstar": 0.0024269835,
        "meta_mean_motion_dot": 5.057e-05,
        "meta_mean_motion_ddot": 0,
        "tle_line1": "1 30073U 99025QA  25344.42369642  .00005057  00000+0  24270-2 0  9995",
        "tle_line2": "2 30073  99.4119 317.4130 0053750 287.4133 224.6446 14.18642799968928"
      },
      "geometry": {
        "type": "Point",
        "coordinates": [
          -43.11690475432087,
          9.68475744935167
        ]
      }
    },
    {
      "type": "Feature",
      "properties": {
        "norad_id": 30074,
        "name": "FENGYUN 1C DEB",
        "group": "fengyun-1c-debris",
        "lat": 28.40858192276579,
        "lon": -123.34542014119792,
        "alt_km": 778.0966380141354,
        "timestamp": "2025-12-11T10:53:16.160468+00:00",
        "meta_object_name": "FENGYUN 1C DEB",
        "meta_object_id": "1999-025QB",
        "meta_epoch": "2025-12-10T15:28:49.934496",
        "meta_mean_motion": 14.12836513,
        "meta_eccentricity": 0.00973973,
        "meta_inclination": 99.129,
        "meta_ra_of_asc_node": 50.841,
        "meta_arg_of_pericenter": 157.7361,
        "meta_mean_anomaly": 202.8082,
        "meta_ephemeris_type": 0,
        "meta_classification_type": "U",
        "meta_norad_cat_id": 30074,
        "meta_element_set_no": 999,
        "meta_rev_at_epoch": 96632,
        "meta_bstar": 0.0021110902,
        "meta_mean_motion_dot": 4.062e-05,
        "meta_mean_motion_ddot": 0,
        "tle_line1": "1 30074U 99025QB  25344.64502239  .00004062  00000+0  21111-2 0  9997",
        "tle_line2": "2 30074  99.1290  50.8410 0097397 157.7361 202.8082 14.12836513966321"
      },
      "geometry": {
        "type": "Point",
        "coordinates": [
          -123.34542014119792,
          28.40858192276579
        ]
      }
    },
    {
      "type": "Feature",
      "properties": {
        "norad_id": 30075,
        "name": "FENGYUN 1C DEB",
        "group": "fengyun-1c-debris",
        "lat": -19.789505904425745,
        "lon": 39.15708403411673,
        "alt_km": 986.9679884043453,
        "timestamp": "2025-12-11T10:53:16.160482+00:00",
        "meta_object_name": "FENGYUN 1C DEB",
        "meta_object_id": "1999-025QC",
        "meta_epoch": "2025-12-11T02:30:19.251936",
        "meta_mean_motion": 13.92532608,
        "meta_eccentricity": 0.0091003,
        "meta_inclination": 99.3621,
        "meta_ra_of_asc_node": 35.4012,
        "meta_arg_of_pericenter": 181.4578,
        "meta_mean_anomaly": 208.2306,
        "meta_ephemeris_type": 0,
        "meta_classification_type": "U",
        "meta_norad_cat_id": 30075,
        "meta_element_set_no": 999,
        "meta_rev_at_epoch": 96042,
        "meta_bstar": 0.00012673,
        "meta_mean_motion_dot": 1.23e-06,
        "meta_mean_motion_ddot": 0,
        "tle_line1": "1 30075U 99025QC  25345.10438949  .00000123  00000+0  12673-3 0  9994",
        "tle_line2": "2 30075  99.3621  35.4012 0091003 181.4578 208.2306 13.92532608960420"
      },
      "geometry": {
        "type": "Point",
        "coordinates": [
          39.15708403411673,
          -19.789505904425745
        ]
      }
    },
    {
      "type": "Feature",
      "properties": {
        "norad_id": 30076,
        "name": "FENGYUN 1C DEB",
        "group": "fengyun-1c-debris",
        "lat": 67.00998862649264,
        "lon": 174.77352768859217,
        "alt_km": 844.882462034293,
        "timestamp": "2025-12-11T10:53:16.160493+00:00",
        "meta_object_name": "FENGYUN 1C DEB",
        "meta_object_id": "1999-025QD",
        "meta_epoch": "2025-12-10T17:44:11.593248",
        "meta_mean_motion": 13.7628886,
        "meta_eccentricity": 0.01756831,
        "meta_inclination": 99.2379,
        "meta_ra_of_asc_node": 331.5241,
        "meta_arg_of_pericenter": 99.1329,
        "meta_mean_anomaly": 72.6143,
        "meta_ephemeris_type": 0,
        "meta_classification_type": "U",
        "meta_norad_cat_id": 30076,
        "meta_element_set_no": 999,
        "meta_rev_at_epoch": 94866,
        "meta_bstar": 0.0004041308,
        "meta_mean_motion_dot": 4e-06,
        "meta_mean_motion_ddot": 0,
        "tle_line1": "1 30076U 99025QD  25344.73902307  .00000400  00000+0  40413-3 0  9998",
        "tle_line2": "2 30076  99.2379 331.5241 0175683  99.1329  72.6143 13.76288860948664"
      },
      "geometry": {
        "type": "Point",
        "coordinates": [
          174.77352768859217,
          67.00998862649264
        ]
      }
    },
    {
      "type": "Feature",
      "properties": {
        "norad_id": 30077,
        "name": "FENGYUN 1C DEB",
        "group": "fengyun-1c-debris",
        "lat": -70.16527816069987,
        "lon": 155.84862593545216,
        "alt_km": 862.4067845953668,
        "timestamp": "2025-12-11T10:53:16.160504+00:00",
        "meta_object_name": "FENGYUN 1C DEB",
        "meta_object_id": "1999-025QE",
        "meta_epoch": "2025-12-11T01:13:28.058016",
        "meta_mean_motion": 14.07078901,
        "meta_eccentricity": 0.0020408,
        "meta_inclination": 98.7582,
        "meta_ra_of_asc_node": 0.7599,
        "meta_arg_of_pericenter": 269.144,
        "meta_mean_anomaly": 104.5833,
        "meta_ephemeris_type": 0,
        "meta_classification_type": "U",
        "meta_norad_cat_id": 30077,
        "meta_element_set_no": 999,
        "meta_rev_at_epoch": 97089,
        "meta_bstar": 0.00015591,
        "meta_mean_motion_dot": 2.18e-06,
        "meta_mean_motion_ddot": 0,
        "tle_line1": "1 30077U 99025QE  25345.05101919  .00000218  00000+0  15591-3 0  9991",
        "tle_line2": "2 30077  98.7582   0.7599 0020408 269.1440 104.5833 14.07078901970892"
      },
      "geometry": {
        "type": "Point",
        "coordinates": [
          155.84862593545216,
          -70.16527816069987
        ]
      }
    },
    {
      "type": "Feature",
      "properties": {
        "norad_id": 30078,
        "name": "FENGYUN 1C DEB",
        "group": "fengyun-1c-debris",
        "lat": 66.17649865729975,
        "lon": 39.69966561674499,
        "alt_km": 838.7410663381843,
        "timestamp": "2025-12-11T10:53:16.160514+00:00",
        "meta_object_name": "FENGYUN 1C DEB",
        "meta_object_id": "1999-025QF",
        "meta_epoch": "2025-12-11T03:57:32.479200",
        "meta_mean_motion": 14.23120166,
        "meta_eccentricity": 0.0052647,
        "meta_inclination": 98.8317,
        "meta_ra_of_asc_node": 60.0269,
        "meta_arg_of_pericenter": 285.0562,
        "meta_mean_anomaly": 104.1661,
        "meta_ephemeris_type": 0,
        "meta_classification_type": "U",
        "meta_norad_cat_id": 30078,
        "meta_element_set_no": 999,
        "meta_rev_at_epoch": 97091,
        "meta_bstar": 0.0019224,
        "meta_mean_motion_dot": 4.359e-05,
        "meta_mean_motion_ddot": 0,
        "tle_line1": "1 30078U 99025QF  25345.16495925  .00004359  00000+0  19224-2 0  9993",
        "tle_line2": "2 30078  98.8317  60.0269 0052647 285.0562 104.1661 14.23120166970912"
      },
      "geometry": {
        "type": "Point",
        "coordinates": [
          39.69966561674499,
          66.17649865729975
        ]
      }
    },
    {
      "type": "Feature",
      "properties": {
        "norad_id": 30079,
        "name": "FENGYUN 1C DEB",
        "group": "fengyun-1c-debris",
        "lat": -80.33595466820829,
        "lon": 151.86781278066465,
        "alt_km": 848.4901244921948,
        "timestamp": "2025-12-11T10:53:16.160526+00:00",
        "meta_object_name": "FENGYUN 1C DEB",
        "meta_object_id": "1999-025QG",
        "meta_epoch": "2025-12-10T15:30:15.417792",
        "meta_mean_motion": 14.00792367,
        "meta_eccentricity": 0.008461,
        "meta_inclination": 99.0357,
        "meta_ra_of_asc_node": 40.2065,
        "meta_arg_of_pericenter": 304.9065,
        "meta_mean_anomaly": 211.6107,
        "meta_ephemeris_type": 0,
        "meta_classification_type": "U",
        "meta_norad_cat_id": 30079,
        "meta_element_set_no": 999,
        "meta_rev_at_epoch": 96508,
        "meta_bstar": 0.00028439,
        "meta_mean_motion_dot": 3.93e-06,
        "meta_mean_motion_ddot": 0,
        "tle_line1": "1 30079U 99025QG  25344.64601178  .00000393  00000+0  28439-3 0  9998",
        "tle_line2": "2 30079  99.0357  40.2065 0084610 304.9065 211.6107 14.00792367965082"
      },
      "geometry": {
        "type": "Point",
        "coordinates": [
          151.86781278066465,
          -80.33595466820829
        ]
      }
    }
  ]
}